[{"OBJECT_NAME":"INSAT-1C","OBJECT_ID":"1988-063A","EPOCH":"2026-03-06T17:47:57.390144","MEAN_MOTION":1.00240362,"ECCENTRICITY":0.00037937,"INCLINATION":11.4599,"RA_OF_ASC_NODE":328.4539,"ARG_OF_PERICENTER":125.2267,"MEAN_ANOMALY":65.8048,"EPHEMERIS_TYPE":0,"CLASSIFICATION_TYPE":"U","NORAD_CAT_ID":19330,"ELEMENT_SET_NO":999,"REV_AT_EPOCH":11931,"BSTAR":0,"MEAN_MOTION_DOT":-2.2e-6,"MEAN_MOTION_DDOT":0},{"OBJECT_NAME":"COSMOS 1961","OBJECT_ID":"1988-066A","EPOCH":"2026-03-07T14:02:48.026112","MEAN_MOTION":1.0027501,"ECCENTRICITY":0.000174,"INCLINATION":11.5923,"RA_OF_ASC_NODE":330.3807,"ARG_OF_PERICENTER":157.2746,"MEAN_ANOMALY":328.5264,"EPHEMERIS_TYPE":0,"CLASSIFICATION_TYPE":"U","NORAD_CAT_ID":19344,"ELEMENT_SET_NO":999,"REV_AT_EPOCH":13799,"BSTAR":0,"MEAN_MOTION_DOT":-1.53e-6,"MEAN_MOTION_DDOT":0},{"OBJECT_NAME":"GORIZONT 16","OBJECT_ID":"1988-071A","EPOCH":"2026-03-07T00:11:01.970016","MEAN_MOTION":0.99987327,"ECCENTRICITY":0.00117783,"INCLINATION":11.6604,"RA_OF_ASC_NODE":330.4848,"ARG_OF_PERICENTER":77.5802,"MEAN_ANOMALY":110.5634,"EPHEMERIS_TYPE":0,"CLASSIFICATION_TYPE":"U","NORAD_CAT_ID":19397,"ELEMENT_SET_NO":999,"REV_AT_EPOCH":13721,"BSTAR":0,"MEAN_MOTION_DOT":-1.4e-6,"MEAN_MOTION_DDOT":0},{"OBJECT_NAME":"SL-12 R/B(2)","OBJECT_ID":"1988-071D","EPOCH":"2026-03-06T20:56:14.972928","MEAN_MOTION":1.00545753,"ECCENTRICITY":0.00190692,"INCLINATION":11.3858,"RA_OF_ASC_NODE":329.7203,"ARG_OF_PERICENTER":240.7834,"MEAN_ANOMALY":296.4281,"EPHEMERIS_TYPE":0,"CLASSIFICATION_TYPE":"U","NORAD_CAT_ID":19400,"ELEMENT_SET_NO":999,"REV_AT_EPOCH":13167,"BSTAR":0,"MEAN_MOTION_DOT":1.31e-6,"MEAN_MOTION_DDOT":0},{"OBJECT_NAME":"GSTAR 3","OBJECT_ID":"1988-081A","EPOCH":"2026-03-07T04:51:42.556896","MEAN_MOTION":1.00271962,"ECCENTRICITY":0.0004535,"INCLINATION":11.2624,"RA_OF_ASC_NODE":319.125,"ARG_OF_PERICENTER":219.5791,"MEAN_ANOMALY":313.8544,"EPHEMERIS_TYPE":0,"CLASSIFICATION_TYPE":"U","NORAD_CAT_ID":19483,"ELEMENT_SET_NO":999,"REV_AT_EPOCH":13357,"BSTAR":0,"MEAN_MOTION_DOT":-1.03e-6,"MEAN_MOTION_DDOT":0},{"OBJECT_NAME":"SBS 5","OBJECT_ID":"1988-081B","EPOCH":"2026-03-07T00:18:01.298592","MEAN_MOTION":0.99795095,"ECCENTRICITY":0.000849,"INCLINATION":14.5823,"RA_OF_ASC_NODE":1.7022,"ARG_OF_PERICENTER":317.4789,"MEAN_ANOMALY":225.5493,"EPHEMERIS_TYPE":0,"CLASSIFICATION_TYPE":"U","NORAD_CAT_ID":19484,"ELEMENT_SET_NO":999,"REV_AT_EPOCH":4544,"BSTAR":0,"MEAN_MOTION_DOT":-5.0e-8,"MEAN_MOTION_DDOT":0},{"OBJECT_NAME":"TDRS 3","OBJECT_ID":"1988-091B","EPOCH":"2026-03-05T19:09:20.611872","MEAN_MOTION":1.00259845,"ECCENTRICITY":0.00441837,"INCLINATION":12.6797,"RA_OF_ASC_NODE":341.6841,"ARG_OF_PERICENTER":353.3967,"MEAN_ANOMALY":66.2018,"EPHEMERIS_TYPE":0,"CLASSIFICATION_TYPE":"U","NORAD_CAT_ID":19548,"ELEMENT_SET_NO":999,"REV_AT_EPOCH":12435,"BSTAR":0,"MEAN_MOTION_DOT":-3.03e-6,"MEAN_MOTION_DDOT":0},{"OBJECT_NAME":"IUS R/B(2)","OBJECT_ID":"1988-091D","EPOCH":"2026-03-07T03:19:43.876128","MEAN_MOTION":1.00477851,"ECCENTRICITY":0.00206469,"INCLINATION":12.3341,"RA_OF_ASC_NODE":331.7279,"ARG_OF_PERICENTER":304.3802,"MEAN_ANOMALY":231.321,"EPHEMERIS_TYPE":0,"CLASSIFICATION_TYPE":"U","NORAD_CAT_ID":19550,"ELEMENT_SET_NO":999,"REV_AT_EPOCH":12908,"BSTAR":0,"MEAN_MOTION_DOT":-2.97e-6,"MEAN_MOTION_DDOT":0},{"OBJECT_NAME":"RADUGA 22","OBJECT_ID":"1988-095A","EPOCH":"2026-03-07T14:09:31.750848","MEAN_MOTION":1.00168432,"ECCENTRICITY":0.00045145,"INCLINATION":11.6747,"RA_OF_ASC_NODE":330.8023,"ARG_OF_PERICENTER":205.1759,"MEAN_ANOMALY":297.8023,"EPHEMERIS_TYPE":0,"CLASSIFICATION_TYPE":"U","NORAD_CAT_ID":19596,"ELEMENT_SET_NO":999,"REV_AT_EPOCH":12063,"BSTAR":0,"MEAN_MOTION_DOT":-2.71e-6,"MEAN_MOTION_DDOT":0},{"OBJECT_NAME":"STTW-3","OBJECT_ID":"1988-111A","EPOCH":"2026-03-05T15:32:20.997600","MEAN_MOTION":1.00194156,"ECCENTRICITY":0.0003512,"INCLINATION":14.1048,"RA_OF_ASC_NODE":346.3379,"ARG_OF_PERICENTER":196.3398,"MEAN_ANOMALY":282.9616,"EPHEMERIS_TYPE":0,"CLASSIFICATION_TYPE":"U","NORAD_CAT_ID":19710,"ELEMENT_SET_NO":999,"REV_AT_EPOCH":12980,"BSTAR":0,"MEAN_MOTION_DOT":-4.3e-7,"MEAN_MOTION_DDOT":0},{"OBJECT_NAME":"IUS R/B(2)","OBJECT_ID":"1989-021D","EPOCH":"2026-03-07T14:03:13.237632","MEAN_MOTION":1.00621782,"ECCENTRICITY":0.00227679,"INCLINATION":8.8706,"RA_OF_ASC_NODE":321.0217,"ARG_OF_PERICENTER":192.2531,"MEAN_ANOMALY":307.7974,"EPHEMERIS_TYPE":0,"CLASSIFICATION_TYPE":"U","NORAD_CAT_ID":19913,"ELEMENT_SET_NO":999,"REV_AT_EPOCH":12463,"BSTAR":0,"MEAN_MOTION_DOT":-2.62e-6,"MEAN_MOTION_DDOT":0},{"OBJECT_NAME":"RADUGA 23","OBJECT_ID":"1989-030A","EPOCH":"2026-03-07T15:24:36.284832","MEAN_MOTION":1.00260746,"ECCENTRICITY":0.00187128,"INCLINATION":11.922,"RA_OF_ASC_NODE":332.6512,"ARG_OF_PERICENTER":209.2384,"MEAN_ANOMALY":333.4165,"EPHEMERIS_TYPE":0,"CLASSIFICATION_TYPE":"U","NORAD_CAT_ID":19928,"ELEMENT_SET_NO":999,"REV_AT_EPOCH":13383,"BSTAR":0,"MEAN_MOTION_DOT":-3.73e-6,"MEAN_MOTION_DDOT":0},{"OBJECT_NAME":"SUPERBIRD-A","OBJECT_ID":"1989-041A","EPOCH":"2026-03-06T20:55:45.020640","MEAN_MOTION":0.99750737,"ECCENTRICITY":0.00039505,"INCLINATION":12.2946,"RA_OF_ASC_NODE":333.0005,"ARG_OF_PERICENTER":55.033,"MEAN_ANOMALY":116.8334,"EPHEMERIS_TYPE":0,"CLASSIFICATION_TYPE":"U","NORAD_CAT_ID":20040,"ELEMENT_SET_NO":999,"REV_AT_EPOCH":13344,"BSTAR":0,"MEAN_MOTION_DOT":5.9e-7,"MEAN_MOTION_DDOT":0},{"OBJECT_NAME":"DFS 1","OBJECT_ID":"1989-041B","EPOCH":"2026-03-06T21:58:38.450784","MEAN_MOTION":1.00666157,"ECCENTRICITY":0.0017223,"INCLINATION":14.0402,"RA_OF_ASC_NODE":347.3307,"ARG_OF_PERICENTER":308.882,"MEAN_ANOMALY":244.3891,"EPHEMERIS_TYPE":0,"CLASSIFICATION_TYPE":"U","NORAD_CAT_ID":20041,"ELEMENT_SET_NO":999,"REV_AT_EPOCH":12346,"BSTAR":0,"MEAN_MOTION_DOT":5.0e-7,"MEAN_MOTION_DDOT":0},{"OBJECT_NAME":"TVSAT 2","OBJECT_ID":"1989-062A","EPOCH":"2026-03-07T00:40:38.646912","MEAN_MOTION":0.99854902,"ECCENTRICITY":0.00028712,"INCLINATION":14.6954,"RA_OF_ASC_NODE":356.5633,"ARG_OF_PERICENTER":227.7695,"MEAN_ANOMALY":315.6887,"EPHEMERIS_TYPE":0,"CLASSIFICATION_TYPE":"U","NORAD_CAT_ID":20168,"ELEMENT_SET_NO":999,"REV_AT_EPOCH":13348,"BSTAR":0,"MEAN_MOTION_DOT":-6.7e-7,"MEAN_MOTION_DDOT":0},{"OBJECT_NAME":"FLTSATCOM 8 (USA 46)","OBJECT_ID":"1989-077A","EPOCH":"2026-03-06T16:15:58.710240","MEAN_MOTION":1.00261853,"ECCENTRICITY":0.00086144,"INCLINATION":12.4496,"RA_OF_ASC_NODE":351.7772,"ARG_OF_PERICENTER":335.2152,"MEAN_ANOMALY":206.8046,"EPHEMERIS_TYPE":0,"CLASSIFICATION_TYPE":"U","NORAD_CAT_ID":20253,"ELEMENT_SET_NO":999,"REV_AT_EPOCH":25953,"BSTAR":0,"MEAN_MOTION_DOT":-3.69e-6,"MEAN_MOTION_DDOT":0},{"OBJECT_NAME":"GORIZONT 19","OBJECT_ID":"1989-081A","EPOCH":"2026-03-06T16:08:51.891648","MEAN_MOTION":1.0021113,"ECCENTRICITY":0.00058376,"INCLINATION":12.1876,"RA_OF_ASC_NODE":334.1767,"ARG_OF_PERICENTER":283.6601,"MEAN_ANOMALY":249.0139,"EPHEMERIS_TYPE":0,"CLASSIFICATION_TYPE":"U","NORAD_CAT_ID":20263,"ELEMENT_SET_NO":999,"REV_AT_EPOCH":4631,"BSTAR":0,"MEAN_MOTION_DOT":-3.11e-6,"MEAN_MOTION_DDOT":0}]
