INSAT-1C                
1 19330U 88063A   26065.74163646 -.00000220  00000+0  00000+0 0  9990
2 19330  11.4599 328.4539 0003793 125.2267  65.8048  1.00240362119312
COSMOS 1961             
1 19344U 88066A   26066.58527808 -.00000153  00000+0  00000+0 0  9990
2 19344  11.5923 330.3807 0001740 157.2746 328.5264  1.00275010137997
GORIZONT 16             
1 19397U 88071A   26066.00766169 -.00000140  00000+0  00000+0 0  9992
2 19397  11.6604 330.4848 0011778  77.5802 110.5634  0.99987327137210
SL-12 R/B(2)            
1 19400U 88071D   26065.87239552  .00000131  00000+0  00000+0 0  9991
2 19400  11.3858 329.7203 0019069 240.7834 296.4281  1.00545753131671
GSTAR 3                 
1 19483U 88081A   26066.20257589 -.00000103  00000+0  00000+0 0  9991
2 19483  11.2624 319.1250 0004535 219.5791 313.8544  1.00271962133570
SBS 5                   
1 19484U 88081B   26066.01251503 -.00000005  00000+0  00000+0 0  9992
2 19484  14.5823   1.7022 0008490 317.4789 225.5493  0.99795095 45443
TDRS 3                  
1 19548U 88091B   26064.79815523 -.00000303  00000+0  00000+0 0  9996
2 19548  12.6797 341.6841 0044183 353.3967  66.2018  1.00259845124356
IUS R/B(2)              
1 19550U 88091D   26066.13870227 -.00000297  00000+0  00000+0 0  9993
2 19550  12.3341 331.7279 0020646 304.3802 231.3210  1.00477851129081
RADUGA 22               
1 19596U 88095A   26066.58995082 -.00000271  00000+0  00000+0 0  9995
2 19596  11.6747 330.8023 0004514 205.1759 297.8023  1.00168432120638
STTW-3                  
1 19710U 88111A   26064.64746525 -.00000043  00000+0  00000+0 0  9990
2 19710  14.1048 346.3379 0003512 196.3398 282.9616  1.00194156129804
IUS R/B(2)              
1 19913U 89021D   26066.58556988 -.00000262  00000+0  00000+0 0  9996
2 19913   8.8706 321.0217 0022767 192.2531 307.7974  1.00621782124637
RADUGA 23               
1 19928U 89030A   26066.64208663 -.00000373  00000+0  00000+0 0  9996
2 19928  11.9220 332.6512 0018712 209.2384 333.4165  1.00260746133834
SUPERBIRD-A             
1 20040U 89041A   26065.87204885  .00000059  00000+0  00000+0 0  9991
2 20040  12.2946 333.0005 0003950  55.0330 116.8334  0.99750737133447
DFS 1                   
1 20041U 89041B   26065.91572281  .00000050  00000+0  00000+0 0  9996
2 20041  14.0402 347.3307 0017223 308.8820 244.3891  1.00666157123460
TVSAT 2                 
1 20168U 89062A   26066.02822508 -.00000067  00000+0  00000+0 0  9991
2 20168  14.6954 356.5633 0002871 227.7695 315.6887  0.99854902133488
FLTSATCOM 8 (USA 46)    
1 20253U 89077A   26065.67776285 -.00000369  00000+0  00000+0 0  9997
2 20253  12.4496 351.7772 0008614 335.2152 206.8046  1.00261853259538
GORIZONT 19             
1 20263U 89081A   26065.67282282 -.00000311  00000+0  00000+0 0  9999
2 20263  12.1876 334.1767 0005837 283.6601 249.0139  1.00211130 46311
